{"type": "FeatureCollection", "features": [ {"type": "Feature", "properties": {"norad_id": 66879, "name": "STARLINK-35749", "group": "last-30-days", "lat": 26.80446933373677, "lon": 28.14951499695054, "alt_km": 393.15245977943414, "timestamp": "2025-12-26T09:30:52.342977+00:00", "meta": {"OBJECT_NAME": "STARLINK-35749", "OBJECT_ID": "2025-283B", "EPOCH": "2025-12-26T04:00:01.998720", "MEAN_MOTION": 15.57843628, "ECCENTRICITY": 0.0001586, "INCLINATION": 53.1596, "RA_OF_ASC_NODE": 7.0028, "ARG_OF_PERICENTER": 83.9453, "MEAN_ANOMALY": 101.6539, "EPHEMERIS_TYPE": 0, "CLASSIFICATION_TYPE": "U", "NORAD_CAT_ID": 66879, "ELEMENT_SET_NO": 999, "REV_AT_EPOCH": 458, "BSTAR": -0.030183, "MEAN_MOTION_DOT": -0.02007741, "MEAN_MOTION_DDOT": 0}, "tle": {"line1": "1 66879U 25283B   25360.16668980 -.02007741  00000+0 -30183-1 0  9994", "line2": "2 66879  53.1596   7.0028 0001586  83.9453 101.6539 15.57843628  4587"}}, "geometry": {"type": "Point", "coordinates": [28.14951499695054, 26.80446933373677]}}, {"type": "Feature", "properties": {"norad_id": 66880, "name": "STARLINK-35844", "group": "last-30-days", "lat": 25.377181466398188, "lon": 26.727836299641407, "alt_km": 393.3835354956318, "timestamp": "2025-12-26T09:30:52.342987+00:00", "meta": {"OBJECT_NAME": "STARLINK-35844", "OBJECT_ID": "2025-283C", "EPOCH": "2025-12-26T04:00:01.998720", "MEAN_MOTION": 15.57842163, "ECCENTRICITY": 0.0001601, "INCLINATION": 53.1598, "RA_OF_ASC_NODE": 7.0078, "ARG_OF_PERICENTER": 82.0726, "MEAN_ANOMALY": 101.6119, "EPHEMERIS_TYPE": 0, "CLASSIFICATION_TYPE": "U", "NORAD_CAT_ID": 66880, "ELEMENT_SET_NO": 999, "REV_AT_EPOCH": 458, "BSTAR": -0.030179, "MEAN_MOTION_DOT": -0.02007442, "MEAN_MOTION_DDOT": 0}, "tle": {"line1": "1 66880U 25283C   25360.16668980 -.02007442  00000+0 -30179-1 0  9999", "line2": "2 66880  53.1598   7.0078 0001601  82.0726 101.6119 15.57842163  4584"}}, "geometry": {"type": "Point", "coordinates": [26.727836299641407, 25.377181466398188]}}, {"type": "Feature", "properties": {"norad_id": 66881, "name": "STARLINK-35860", "group": "last-30-days", "lat": 28.21886425727984, "lon": 29.609904924051214, "alt_km": 392.85313451401635, "timestamp": "2025-12-26T09:30:52.342997+00:00", "meta": {"OBJECT_NAME": "STARLINK-35860", "OBJECT_ID": "2025-283D", "EPOCH": "2025-12-26T04:00:01.998720", "MEAN_MOTION": 15.57845921, "ECCENTRICITY": 0.0001613, "INCLINATION": 53.1598, "RA_OF_ASC_NODE": 6.9988, "ARG_OF_PERICENTER": 81.7554, "MEAN_ANOMALY": 105.7605, "EPHEMERIS_TYPE": 0, "CLASSIFICATION_TYPE": "U", "NORAD_CAT_ID": 66881, "ELEMENT_SET_NO": 999, "REV_AT_EPOCH": 458, "BSTAR": -0.030252, "MEAN_MOTION_DOT": -0.0201196, "MEAN_MOTION_DDOT": 0}, "tle": {"line1": "1 66881U 25283D   25360.16668980 -.02011960  00000+0 -30252-1 0  9992", "line2": "2 66881  53.1598   6.9988 0001613  81.7554 105.7605 15.57845921  4581"}}, "geometry": {"type": "Point", "coordinates": [29.609904924051214, 28.21886425727984]}}, {"type": "Feature", "properties": {"norad_id": 66882, "name": "STARLINK-35912", "group": "last-30-days", "lat": 29.615715604113824, "lon": 31.10879404485218, "alt_km": 392.59843677865956, "timestamp": "2025-12-26T09:30:52.343007+00:00", "meta": {"OBJECT_NAME": "STARLINK-35912", "OBJECT_ID": "2025-283E", "EPOCH": "2025-12-26T04:00:01.998720", "MEAN_MOTION": 15.57841533, "ECCENTRICITY": 0.0001619, "INCLINATION": 53.1599, "RA_OF_ASC_NODE": 6.9958, "ARG_OF_PERICENTER": 81.7624, "MEAN_ANOMALY": 107.6713, "EPHEMERIS_TYPE": 0, "CLASSIFICATION_TYPE": "U", "NORAD_CAT_ID": 66882, "ELEMENT_SET_NO": 999, "REV_AT_EPOCH": 458, "BSTAR": -0.030151, "MEAN_MOTION_DOT": -0.02005765, "MEAN_MOTION_DDOT": 0}, "tle": {"line1": "1 66882U 25283E   25360.16668980 -.02005765  00000+0 -30151-1 0  9997", "line2": "2 66882  53.1599   6.9958 0001619  81.7624 107.6713 15.57841533  4580"}}, "geometry": {"type": "Point", "coordinates": [31.10879404485218, 29.615715604113824]}}, {"type": "Feature", "properties": {"norad_id": 66883, "name": "STARLINK-35947", "group": "last-30-days", "lat": 30.996285350406897, "lon": 32.649986398967314, "alt_km": 392.4006570279844, "timestamp": "2025-12-26T09:30:52.343019+00:00", "meta": {"OBJECT_NAME": "STARLINK-35947", "OBJECT_ID": "2025-283F", "EPOCH": "2025-12-26T04:00:01.998720", "MEAN_MOTION": 15.57834738, "ECCENTRICITY": 0.0001564, "INCLINATION": 53.1601, "RA_OF_ASC_NODE": 6.992, "ARG_OF_PERICENTER": 83.4197, "MEAN_ANOMALY": 107.9343, "EPHEMERIS_TYPE": 0, "CLASSIFICATION_TYPE": "U", "NORAD_CAT_ID": 66883, "ELEMENT_SET_NO": 999, "REV_AT_EPOCH": 463, "BSTAR": -0.029999, "MEAN_MOTION_DOT": -0.01996444, "MEAN_MOTION_DDOT": 0}, "tle": {"line1": "1 66883U 25283F   25360.16668980 -.01996444  00000+0 -29999-1 0  9998", "line2": "2 66883  53.1601   6.9920 0001564  83.4197 107.9343 15.57834738  4634"}}, "geometry": {"type": "Point", "coordinates": [32.649986398967314, 30.996285350406897]}}, {"type": "Feature", "properties": {"norad_id": 66884, "name": "STARLINK-36057", "group": "last-30-days", "lat": 33.701283608967486, "lon": 35.87301947689871, "alt_km": 391.95015924179097, "timestamp": "2025-12-26T09:30:52.343032+00:00", "meta": {"OBJECT_NAME": "STARLINK-36057", "OBJECT_ID": "2025-283G", "EPOCH": "2025-12-26T04:00:01.998720", "MEAN_MOTION": 15.57844617, "ECCENTRICITY": 0.0001481, "INCLINATION": 53.16, "RA_OF_ASC_NODE": 6.9833, "ARG_OF_PERICENTER": 83.042, "MEAN_ANOMALY": 112.1441, "EPHEMERIS_TYPE": 0, "CLASSIFICATION_TYPE": "U", "NORAD_CAT_ID": 66884, "ELEMENT_SET_NO": 999, "REV_AT_EPOCH": 458, "BSTAR": -0.030246, "MEAN_MOTION_DOT": -0.0201142, "MEAN_MOTION_DDOT": 0}, "tle": {"line1": "1 66884U 25283G   25360.16668980 -.02011420  00000+0 -30246-1 0  9999", "line2": "2 66884  53.1600   6.9833 0001481  83.0420 112.1441 15.57844617  4588"}}, "geometry": {"type": "Point", "coordinates": [35.87301947689871, 33.701283608967486]}}, {"type": "Feature", "properties": {"norad_id": 66885, "name": "STARLINK-35954", "group": "last-30-days", "lat": 32.36037180506428, "lon": 34.23888928606671, "alt_km": 392.153734903809, "timestamp": "2025-12-26T09:30:52.343041+00:00", "meta": {"OBJECT_NAME": "STARLINK-35954", "OBJECT_ID": "2025-283H", "EPOCH": "2025-12-26T04:00:01.998720", "MEAN_MOTION": 15.57844672, "ECCENTRICITY": 0.000153, "INCLINATION": 53.1598, "RA_OF_ASC_NODE": 6.9874, "ARG_OF_PERICENTER": 81.9766, "MEAN_ANOMALY": 111.2932, "EPHEMERIS_TYPE": 0, "CLASSIFICATION_TYPE": "U", "NORAD_CAT_ID": 66885, "ELEMENT_SET_NO": 999, "REV_AT_EPOCH": 458, "BSTAR": -0.030266, "MEAN_MOTION_DOT": -0.02012629, "MEAN_MOTION_DDOT": 0}, "tle": {"line1": "1 66885U 25283H   25360.16668980 -.02012629  00000+0 -30266-1 0  9994", "line2": "2 66885  53.1598   6.9874 0001530  81.9766 111.2932 15.57844672  4581"}}, "geometry": {"type": "Point", "coordinates": [34.23888928606671, 32.36037180506428]}}, {"type": "Feature", "properties": {"norad_id": 66886, "name": "STARLINK-35900", "group": "last-30-days", "lat": 35.01813534179981, "lon": 37.55690054975229, "alt_km": 391.66773989185185, "timestamp": "2025-12-26T09:30:52.343054+00:00", "meta": {"OBJECT_NAME": "STARLINK-35900", "OBJECT_ID": "2025-283J", "EPOCH": "2025-12-26T04:00:01.998720", "MEAN_MOTION": 15.57841433, "ECCENTRICITY": 0.0001586, "INCLINATION": 53.1596, "RA_OF_ASC_NODE": 6.979, "ARG_OF_PERICENTER": 83.7212, "MEAN_ANOMALY": 113.3818, "EPHEMERIS_TYPE": 0, "CLASSIFICATION_TYPE": "U", "NORAD_CAT_ID": 66886, "ELEMENT_SET_NO": 999, "REV_AT_EPOCH": 458, "BSTAR": -0.030174, "MEAN_MOTION_DOT": -0.02007096, "MEAN_MOTION_DDOT": 0}, "tle": {"line1": "1 66886U 25283J   25360.16668980 -.02007096  00000+0 -30174-1 0  9995", "line2": "2 66886  53.1596   6.9790 0001586  83.7212 113.3818 15.57841433  4582"}}, "geometry": {"type": "Point", "coordinates": [37.55690054975229, 35.01813534179981]}}, {"type": "Feature", "properties": {"norad_id": 66887, "name": "STARLINK-35925", "group": "last-30-days", "lat": 36.31328773174141, "lon": 39.29899473527528, "alt_km": 391.4972915190665, "timestamp": "2025-12-26T09:30:52.343064+00:00", "meta": {"OBJECT_NAME": "STARLINK-35925", "OBJECT_ID": "2025-283K", "EPOCH": "2025-12-26T04:00:01.998720", "MEAN_MOTION": 15.57841759, "ECCENTRICITY": 0.0001552, "INCLINATION": 53.1596, "RA_OF_ASC_NODE": 6.9753, "ARG_OF_PERICENTER": 87.2423, "MEAN_ANOMALY": 111.779, "EPHEMERIS_TYPE": 0, "CLASSIFICATION_TYPE": "U", "NORAD_CAT_ID": 66887, "ELEMENT_SET_NO": 999, "REV_AT_EPOCH": 458, "BSTAR": -0.030197, "MEAN_MOTION_DOT": -0.02008427, "MEAN_MOTION_DDOT": 0}, "tle": {"line1": "1 66887U 25283K   25360.16668980 -.02008427  00000+0 -30197-1 0  9990", "line2": "2 66887  53.1596   6.9753 0001552  87.2423 111.7790 15.57841759  4580"}}, "geometry": {"type": "Point", "coordinates": [39.29899473527528, 36.31328773174141]}}, {"type": "Feature", "properties": {"norad_id": 66888, "name": "STARLINK-35919", "group": "last-30-days", "lat": 37.58083322638131, "lon": 41.09657465624327, "alt_km": 391.2811138905854, "timestamp": "2025-12-26T09:30:52.343074+00:00", "meta": {"OBJECT_NAME": "STARLINK-35919", "OBJECT_ID": "2025-283L", "EPOCH": "2025-12-26T04:00:01.998720", "MEAN_MOTION": 15.57838037, "ECCENTRICITY": 0.0001509, "INCLINATION": 53.1598, "RA_OF_ASC_NODE": 6.971, "ARG_OF_PERICENTER": 86.1088, "MEAN_ANOMALY": 114.8286, "EPHEMERIS_TYPE": 0, "CLASSIFICATION_TYPE": "U", "NORAD_CAT_ID": 66888, "ELEMENT_SET_NO": 999, "REV_AT_EPOCH": 458, "BSTAR": -0.030069, "MEAN_MOTION_DOT": -0.02000718, "MEAN_MOTION_DDOT": 0}, "tle": {"line1": "1 66888U 25283L   25360.16668980 -.02000718  00000+0 -30069-1 0  9994", "line2": "2 66888  53.1598   6.9710 0001509  86.1088 114.8286 15.57838037  4582"}}, "geometry": {"type": "Point", "coordinates": [41.09657465624327, 37.58083322638131]}}]}